[
  {
    "COMMENT": "GENERATED VIA SPACETRACK.ORG API",
    "ORIGINATOR": "18 SPCS",
    "NORAD_CAT_ID": "26997",
    "OBJECT_NAME": "JASON",
    "OBJECT_TYPE": "PAYLOAD",
    "CLASSIFICATION_TYPE": "U",
    "INTLDES": "01055A",
    "EPOCH": "2023-08-27 20:21:08",
    "EPOCH_MICROSECONDS": "103744",
    "MEAN_MOTION": "12.84026076",
    "ECCENTRICITY": "0.0006397",
    "INCLINATION": "66.0401",
    "RA_OF_ASC_NODE": "53.5172",
    "ARG_OF_PERICENTER": "269.355",
    "MEAN_ANOMALY": "190.2727",
    "EPHEMERIS_TYPE": "0",
    "ELEMENT_SET_NO": "999",
    "REV_AT_EPOCH": "1711",
    "BSTAR": "0.00013452",
    "MEAN_MOTION_DOT": "-0.00000029",
    "MEAN_MOTION_DDOT": "0",
    "FILE": "3990698",
    "TLE_LINE0": "0 JASON",
    "TLE_LINE1": "1 26997U 01055A   23239.84801046 -.00000029  00000-0  13452-3 0  9994",
    "TLE_LINE2": "2 26997  66.0401  53.5172 0006397 269.3550 190.2727 12.84026076 17114",
    "OBJECT_ID": "2001-055A",
    "OBJECT_NUMBER": "26997",
    "SEMIMAJOR_AXIS": "7703.462",
    "PERIOD": "112.147",
    "APOGEE": "1330.255",
    "PERIGEE": "1320.399",
    "DECAYED": "0"
  },
  {
    "COMMENT": "GENERATED VIA SPACETRACK.ORG API",
    "ORIGINATOR": "18 SPCS",
    "NORAD_CAT_ID": "26997",
    "OBJECT_NAME": "JASON",
    "OBJECT_TYPE": "PAYLOAD",
    "CLASSIFICATION_TYPE": "U",
    "INTLDES": "01055A",
    "EPOCH": "2023-08-28 20:40:14",
    "EPOCH_MICROSECONDS": "231712",
    "MEAN_MOTION": "12.84026135",
    "ECCENTRICITY": "0.0006399",
    "INCLINATION": "66.0402",
    "RA_OF_ASC_NODE": "51.4005",
    "ARG_OF_PERICENTER": "269.3758",
    "MEAN_ANOMALY": "193.6046",
    "EPHEMERIS_TYPE": "0",
    "ELEMENT_SET_NO": "999",
    "REV_AT_EPOCH": "1724",
    "BSTAR": "0.00012717",
    "MEAN_MOTION_DOT": "-0.00000031",
    "MEAN_MOTION_DDOT": "0",
    "FILE": "3991628",
    "TLE_LINE0": "0 JASON",
    "TLE_LINE1": "1 26997U 01055A   23240.86127583 -.00000031  00000-0  12717-3 0  9991",
    "TLE_LINE2": "2 26997  66.0402  51.4005 0006399 269.3758 193.6046 12.84026135 17240",
    "OBJECT_ID": "2001-055A",
    "OBJECT_NUMBER": "26997",
    "SEMIMAJOR_AXIS": "7703.462",
    "PERIOD": "112.147",
    "APOGEE": "1330.256",
    "PERIGEE": "1320.397",
    "DECAYED": "0"
  },
  {
    "COMMENT": "GENERATED VIA SPACETRACK.ORG API",
    "ORIGINATOR": "18 SPCS",
    "NORAD_CAT_ID": "26997",
    "OBJECT_NAME": "JASON",
    "OBJECT_TYPE": "PAYLOAD",
    "CLASSIFICATION_TYPE": "U",
    "INTLDES": "01055A",
    "EPOCH": "2023-08-29 19:03:30",
    "EPOCH_MICROSECONDS": "941568",
    "MEAN_MOTION": "12.84026159",
    "ECCENTRICITY": "0.0006402",
    "INCLINATION": "66.0405",
    "RA_OF_ASC_NODE": "49.4518",
    "ARG_OF_PERICENTER": "269.4158",
    "MEAN_ANOMALY": "185.1524",
    "EPHEMERIS_TYPE": "0",
    "ELEMENT_SET_NO": "999",
    "REV_AT_EPOCH": "1736",
    "BSTAR": "0.0001019",
    "MEAN_MOTION_DOT": "-0.00000037",
    "MEAN_MOTION_DDOT": "0",
    "FILE": "3992439",
    "TLE_LINE0": "0 JASON",
    "TLE_LINE1": "1 26997U 01055A   23241.79410812 -.00000037  00000-0  10190-3 0  9993",
    "TLE_LINE2": "2 26997  66.0405  49.4518 0006402 269.4158 185.1524 12.84026159 17365",
    "OBJECT_ID": "2001-055A",
    "OBJECT_NUMBER": "26997",
    "SEMIMAJOR_AXIS": "7703.462",
    "PERIOD": "112.147",
    "APOGEE": "1330.258",
    "PERIGEE": "1320.395",
    "DECAYED": "0"
  },
  {
    "COMMENT": "GENERATED VIA SPACETRACK.ORG API",
    "ORIGINATOR": "18 SPCS",
    "NORAD_CAT_ID": "26997",
    "OBJECT_NAME": "JASON",
    "OBJECT_TYPE": "PAYLOAD",
    "CLASSIFICATION_TYPE": "U",
    "INTLDES": "01055A",
    "EPOCH": "2023-08-29 20:58:24",
    "EPOCH_MICROSECONDS": "503808",
    "MEAN_MOTION": "12.84026158",
    "ECCENTRICITY": "0.0006402",
    "INCLINATION": "66.0405",
    "RA_OF_ASC_NODE": "49.2852",
    "ARG_OF_PERICENTER": "269.4253",
    "MEAN_ANOMALY": "193.9197",
    "EPHEMERIS_TYPE": "0",
    "ELEMENT_SET_NO": "999",
    "REV_AT_EPOCH": "1761",
    "BSTAR": "0.000099551",
    "MEAN_MOTION_DOT": "-0.00000038",
    "MEAN_MOTION_DDOT": "0",
    "FILE": "3992516",
    "TLE_LINE0": "0 JASON",
    "TLE_LINE1": "1 26997U 01055A   23241.87389472 -.00000038  00000-0  99551-4 0  9999",
    "TLE_LINE2": "2 26997  66.0405  49.2852 0006402 269.4253 193.9197 12.84026158 17610",
    "OBJECT_ID": "2001-055A",
    "OBJECT_NUMBER": "26997",
    "SEMIMAJOR_AXIS": "7703.462",
    "PERIOD": "112.147",
    "APOGEE": "1330.258",
    "PERIGEE": "1320.395",
    "DECAYED": "0"
  },
  {
    "COMMENT": "GENERATED VIA SPACETRACK.ORG API",
    "ORIGINATOR": "18 SPCS",
    "NORAD_CAT_ID": "26997",
    "OBJECT_NAME": "JASON",
    "OBJECT_TYPE": "PAYLOAD",
    "CLASSIFICATION_TYPE": "U",
    "INTLDES": "01055A",
    "EPOCH": "2023-08-30 17:25:49",
    "EPOCH_MICROSECONDS": "917216",
    "MEAN_MOTION": "12.84026161",
    "ECCENTRICITY": "0.0006399",
    "INCLINATION": "66.0407",
    "RA_OF_ASC_NODE": "47.5047",
    "ARG_OF_PERICENTER": "269.5738",
    "MEAN_ANOMALY": "173.4937",
    "EPHEMERIS_TYPE": "0",
    "ELEMENT_SET_NO": "999",
    "REV_AT_EPOCH": "1748",
    "BSTAR": "0.000060115",
    "MEAN_MOTION_DOT": "-0.00000047",
    "MEAN_MOTION_DDOT": "0",
    "FILE": "3993321",
    "TLE_LINE0": "0 JASON",
    "TLE_LINE1": "1 26997U 01055A   23242.72627219 -.00000047  00000-0  60115-4 0  9992",
    "TLE_LINE2": "2 26997  66.0407  47.5047 0006399 269.5738 173.4937 12.84026161 17487",
    "OBJECT_ID": "2001-055A",
    "OBJECT_NUMBER": "26997",
    "SEMIMAJOR_AXIS": "7703.462",
    "PERIOD": "112.147",
    "APOGEE": "1330.256",
    "PERIGEE": "1320.397",
    "DECAYED": "0"
  },
  {
    "COMMENT": "GENERATED VIA SPACETRACK.ORG API",
    "ORIGINATOR": "18 SPCS",
    "NORAD_CAT_ID": "26997",
    "OBJECT_NAME": "JASON",
    "OBJECT_TYPE": "PAYLOAD",
    "CLASSIFICATION_TYPE": "U",
    "INTLDES": "01055A",
    "EPOCH": "2023-08-31 16:07:54",
    "EPOCH_MICROSECONDS": "884928",
    "MEAN_MOTION": "12.84026208",
    "ECCENTRICITY": "0.0006419",
    "INCLINATION": "66.0408",
    "RA_OF_ASC_NODE": "45.5288",
    "ARG_OF_PERICENTER": "269.4992",
    "MEAN_ANOMALY": "225.5136",
    "EPHEMERIS_TYPE": "0",
    "ELEMENT_SET_NO": "999",
    "REV_AT_EPOCH": "1760",
    "BSTAR": "0.000022425",
    "MEAN_MOTION_DOT": "-0.00000056",
    "MEAN_MOTION_DDOT": "0",
    "FILE": "3994074",
    "TLE_LINE0": "0 JASON",
    "TLE_LINE1": "1 26997U 01055A   23243.67216302 -.00000056  00000-0  22425-4 0  9996",
    "TLE_LINE2": "2 26997  66.0408  45.5288 0006419 269.4992 225.5136 12.84026208 17603",
    "OBJECT_ID": "2001-055A",
    "OBJECT_NUMBER": "26997",
    "SEMIMAJOR_AXIS": "7703.461",
    "PERIOD": "112.147",
    "APOGEE": "1330.271",
    "PERIGEE": "1320.382",
    "DECAYED": "0"
  }
]